#dP2023  1 25  0  0  0.00000000      96 __u+U IGS14 FIT  IAC
## 2246 259200.00000000   900.00000000 59969 0.0000000000000
+  117   C06C07C08C09C10C11C12C13C14C19C20C21C22C23C24C25C26
+        C27C28C29C30C32C33C34C35C36C37C38C39C40C41C42C43C44
+        C45C46E01E02E03E04E05E07E08E09E10E11E12E13E14E15E18
+        E19E21E24E25E27E30E31E33E34E36G01G02G03G04G05G06G07
+        G08G09G10G11G12G13G14G15G16G17G18G19G20G21G22G23G24
+        G25G26G27G29G30G31G32J02J03J04R01R02R03R04R05R07R08
+        R09R11R12R13R14R15R16R17R18R19R20R21R22R24R25  0  0
++         7  7  7  7  7  7  7  7  7  5  6  6  6  6  6  6  6
++         6  6  6  6  6  6  6  6  6  6  6  6  6  6  6  6  6
++         6  6  5  4  4  4  4  4  4  4  4  4  4  4  4  4  5
++         4  4  4  4  4  4  5  4  4  4  3  4  3  4  4  3  4
++         4  4  3  3  3  4  3  4  4  3  4  3  4  4  4  3  3
++         3  4  4  4  3  4  7  9  9 10  7  7  7  7  7  6  6
++         7  7  7  8  7  7  6  6  6  8  8  7  7  6  8  0  0
%c M  cc GPS ccc cccc cccc cccc cccc ccccc ccccc ccccc ccccc
%c cc cc ccc ccc cccc cccc cccc cccc ccccc ccccc ccccc ccccc
%f  1.2500000  1.025000000  0.00000000000  0.000000000000000
%f  0.0000000  0.000000000  0.00000000000  0.000000000000000
%i    0    0    0    0      0      0      0      0         0
%i    0    0    0    0      0      0      0      0         0
/* INFORMATION & ANALYSIS CENTER (IAC)            FINAL DATA
/* S/V CLOCKS ARE ALIGNED TO GNSS TIME                      
/* G:C1WC2W R:C1PC2P E:C1XC5X C:C2IC6I J:C1CC2S             
/* PCV:IGS20_2239 OL/AL:FES2004  NONE     YN ORB:CoN CLK:CoN
*  2023 01 25  0 15  0.00000000
PC06  -1405.065708  29808.415597  29889.368230   -187.732986
PC07 -15862.312410  29320.747123 -25841.975743    -32.346134
PC08 -10574.686756  40702.300699   -279.989272    527.827918
PC09   5664.004284  33885.554728  25176.953589    398.309361
PC10  -9635.725753  29404.506993 -28525.045777     25.540445
PC11   3492.675889 -16189.898727  22535.182490   -159.008013
PC12  18915.586713  -2407.580112  20416.798522    415.319165
PC13  -6521.338301  41273.031126   4555.823854    191.428124
PC14  13292.708939 -18112.595988 -16501.619228    404.200039
PC19  -3157.145818  17423.117332  21598.641185   -895.807497
PC20 -20096.839243  16392.740268  10348.402237    753.384850
PC21  26181.363158  -5300.065433   8062.845300   -914.586200
PC22  16413.201927   8471.640220  20913.168920   -668.259089
PC23 -10553.877685 -18892.593311  17618.381687   -872.922251
PC24  13076.031374 -19776.106317 -14764.368775   -497.950060
PC25    368.757986 -27742.013781   3101.086254     60.878350
PC26  16442.123546  -2503.608840 -22430.168073    -69.076753
PC27 -23184.109300  -4787.635129 -14779.781136     86.585705
PC28 -21728.803542 -17479.611489   1038.287617     62.719700
PC29   7435.156279  20275.808038 -17679.726041     71.929314
PC30 -11962.839253  10933.590895 -22719.409312      1.260474
PC32 -26137.309967   5480.854574  -8090.161767   -640.586469
PC33   3142.852980 -17470.645751 -21523.931346   -877.875912
PC34  10908.853938 -11815.042150  22800.020331     91.063716
PC35  21762.896162  17352.968599  -2311.404914    691.998336
PC36  -1474.105323  27751.251663  -2455.293832   -671.547847
PC37 -16399.439998    417.363696  22577.245714   -838.351270
PC38 -14655.524562  38454.798899  -8750.441368     54.200848
PC39  -8030.601528  24259.970256  33597.453224     -1.551035
PC40 -22823.873717  23440.186160 -26721.107136    -13.375375
PC41 -15940.196000  -8810.441304 -21089.175180   -532.269896
PC42  20951.387127 -15970.310740  -9136.574116   -875.996122
PC43  -6521.020062 -20197.338235  18099.856198      3.761614
PC44  23486.851097   4083.803268  14526.332042    187.802162
PC45  10677.701597  18501.423498 -17950.088278    -51.785006
PC46 -12207.391844  21159.310647  13442.131228    -28.728656
PE01  21718.135855  -6637.310788 -18997.179484   -598.060400
PE02 -21788.714261   7002.455088  18750.248416     16.711770
PE03 -29155.309958   -317.768398   5117.684210   -643.254507
PE04  18146.931637 -11837.946872 -20166.422823    -43.452283
PE05 -23257.789800 -12577.372601 -13301.470940   -101.946671
PE07   3781.093733  17318.007912  23707.996815    -17.736960
PE08 -18213.320439  11703.210586  20186.981568    -24.931757
PE09  -3618.909063 -17166.409900 -23841.801696   -811.937076
PE10   1574.367729 -24319.089965  16801.962391   -507.483117
PE11  -6214.514536 -27922.774416   7571.748386    603.066886
PE12   8591.946453 -17294.039334  22431.717594   -396.676475
PE13   5668.953253  27804.748938  -8429.420624    429.718835
PE14 -28288.486007  -9889.191774   2813.310707    122.879858
PE15  -8693.338205  17009.651047 -22602.349676    691.916520
PE18  18382.138529  15394.224414 -11788.794630   -470.305571
PE19  29405.165582   2255.157417  -2588.674473  -3403.698760
PE21  12399.181793  11280.181153 -24402.052307   -508.200162
PE24   5558.792089 -24510.784479  15642.006838  -1076.494186
PE25 -12139.013130 -11590.792391  24381.413161   -597.912746
PE27  -4688.069272  24228.797994 -16334.956656   -495.790375
PE30 -19247.500621  22389.439298   1914.436555  -1187.363829
PE31  18855.077828 -22791.094269  -1274.401176   -514.207803
PE33  17830.485321   3762.433193  23337.656112   -453.524990
PE34 -17797.029227  -3543.912580 -23385.435980    -26.560386
PE36 -16529.704055 -22186.993118 -10497.541718     -2.274158
PG01  15121.651733    785.855848  21552.443407    220.353066
PG02 -14244.857769   4205.915207 -21381.593469   -625.262740
PG03  20554.656107  -8952.548511  14033.470746   -369.877597
PG04  24994.979609   -567.725730  -9124.651961    -41.890530
PG05 -14845.922963  -5395.773812 -21536.303216   -113.272773
PG06  -5018.894986 -25589.811700   4847.293989    563.509796
PG07   9648.347197 -14730.087148 -19303.464905    253.169582
PG08  25843.625323   6471.929577  -2698.259553   -105.210393
PG09  17761.035391  -9350.991380 -17495.250705   -230.592939
PG10  -8454.405546  21993.283794  12111.575005    -21.810675
PG11 -12154.117738 -22126.703331  -8300.539225    -86.747196
PG12 -20925.990063   6290.816559  14748.277358   -332.112307
PG13 -21495.802101 -13531.627504  -8268.429722    464.954363
PG14  11236.460577 -21964.238151   9675.349273    -42.429005
PG15 -26320.034760  -3826.304240  -2897.636153      7.514453
PG16  12218.230315   9339.426674 -21978.802103   -522.765615
PG17   4588.982391 -14378.808144  22294.437800    695.644418
PG18  -7398.271482  17788.786552 -18216.525807   -112.587986
PG19  -7962.005847 -16243.498006  19311.034517    268.579947
PG20  -6975.161196 -16037.954572 -20017.705313    454.963759
PG21  17910.074209   9203.218925  18305.664846    153.650202
PG22  11293.188805  16397.272392  18093.636342    412.936645
PG23 -16379.445628  20781.204330   1057.167331      3.550965
PG24 -17492.908436  -4543.169157  19242.746199    -44.552323
PG25 -20182.948116  15089.046707   7608.318363    414.232723
PG26   2244.569095  19115.175149 -18269.067990    240.765153
PG27  19795.741981  12886.516683 -12780.764595    118.842794
PG29 -20484.879384   5465.392952 -16090.646869   -582.328943
PG30   1078.529122 -23821.040234 -11328.689210   -532.373218
PG31   5982.971031  25471.021415   2603.097477   -207.289074
PG32   -347.344236  15466.551248  21764.571114   -374.805478
PJ02 -34814.143585  23674.066901   7989.242743     -0.672915
PJ03 -21076.093035  20843.814230 -25352.013194     -0.009498
PJ04 -26247.575124  32853.014472  11030.114338    120.271925
PR01  24855.235448  -5410.808423   1850.195483     21.836194
PR02  16525.001598 -11229.978069 -15857.579844    -23.312393
PR03  -1473.224960 -10809.826532 -23012.895060     71.364367
PR04 -18188.857517  -4245.981809 -17335.021807    173.377131
PR05 -25011.327810   4431.732303  -2155.667777    106.692461
PR07   2461.849587  10622.703271  23099.342870     48.615754
PR08  18370.598798   4196.238970  17268.247645    -69.157847
PR09  -9922.208368  22479.873715   6998.810055    100.393241
PR11   7108.429334  11909.621722 -21405.037227      3.065086
PR12  12741.547540  -8177.638793 -20517.355086     24.554769
PR13  10589.139973 -21524.624063  -8704.976495    -31.288347
PR14   1688.011320 -23279.647949  10279.436446     24.285359
PR15  -7620.580645 -10937.988971  21759.347798     91.517944
PR16 -12523.879763   7953.519437  20759.278579     10.401303
PR17 -10232.919046 -19663.898906  12665.672827    598.766129
PR18 -18074.949787 -17566.714153  -3707.982371     63.453026
PR19 -16908.015914  -7966.465461 -17352.357688   -219.432454
PR20  -4725.380867  10142.497831 -22914.294465    -86.463562
PR21  11266.286604  19942.932555 -11198.915921   -368.030938
PR22  17712.008360  17796.361187   4582.312327     68.091945
PR24   4275.940449 -11065.051925  22605.246678    141.929226
PR25   8895.076961  20140.639386 -12857.888746     52.516198
EOF
